{
  "type": "FeatureCollection",
  "features": [
    {
      "type": "Feature",
      "geometry": {
        "type": "Point",
        "coordinates": [
          -85.649883,
          42.969927
        ]
      },
      "properties": {
        "SSID": "7MonksGuests",
        "Password": "drinkbeer"
      }
    },
    {
      "type": "Feature",
      "geometry": {
        "type": "Point",
        "coordinates": [
          -85.649883,
          42.969927
        ]
      },
      "properties": {
        "SSID": "7MonksGuests",
        "Password": "drinkbeer"
      }
    },
    {
      "type": "Feature",
      "geometry": {
        "type": "Point",
        "coordinates": [
          -85.649883,
          42.969927
        ]
      },
      "properties": {
        "SSID": "7MonksGuests",
        "Password": "drinkbeer"
      }
    },
    {
      "type": "Feature",
      "geometry": {
        "type": "Point",
        "coordinates": [
          -85.649883,
          42.969927
        ]
      },
      "properties": {
        "SSID": "7MonksGuests",
        "Password": "drinkbeer"
      }
    },
    {
      "type": "Feature",
      "geometry": {
        "type": "Point",
        "coordinates": [
          -85.672527,
          42.970696
        ]
      },
      "properties": {
        "SSID": "ATW-GUEST",
        "Password": "goodbeer"
      }
    },
    {
      "type": "Feature",
      "geometry": {
        "type": "Point",
        "coordinates": [
          -85.672527,
          42.970696
        ]
      },
      "properties": {
        "SSID": "ATW-GUEST",
        "Password": "goodbeer"
      }
    },
    {
      "type": "Feature",
      "geometry": {
        "type": "Point",
        "coordinates": [
          -85.672481,
          42.966582
        ]
      },
      "properties": {
        "SSID": "Amway-Guest",
        "Password": "shamrock",
        "Notes": "Password changes every month."
      }
    },
    {
      "type": "Feature",
      "geometry": {
        "type": "Point",
        "coordinates": [
          -85.672481,
          42.966582
        ]
      },
      "properties": {
        "SSID": "Amway-Guest",
        "Password": "shamrock",
        "Notes": "Password changes every month."
      },
      "id": 3
    },
    {
      "type": "Feature",
      "geometry": {
        "type": "Point",
        "coordinates": [
          -85.672481,
          42.966582
        ]
      },
      "properties": {
        "SSID": "Amway-Guest",
        "Password": "shamrock",
        "Notes": "Password changes every month."
      }
    },
    {
      "type": "Feature",
      "geometry": {
        "type": "Point",
        "coordinates": [
          -85.672481,
          42.966582
        ]
      },
      "properties": {
        "SSID": "Amway-Guest",
        "Password": "shamrock",
        "Notes": "Password changes every month."
      },
      "id": 3
    },
    {
      "type": "Feature",
      "geometry": {
        "type": "Point",
        "coordinates": [
          -85.680831,
          42.970727
        ]
      },
      "properties": {
        "SSID": "Anchor Wifi",
        "Password": "anchorbar"
      }
    },
    {
      "type": "Feature",
      "geometry": {
        "type": "Point",
        "coordinates": [
          -85.680831,
          42.970727
        ]
      },
      "properties": {
        "SSID": "Anchor Wifi",
        "Password": "anchorbar"
      }
    },
    {
      "type": "Feature",
      "geometry": {
        "type": "Point",
        "coordinates": [
          -85.680831,
          42.970727
        ]
      },
      "properties": {
        "SSID": "Anchor Wifi",
        "Password": "anchorbar"
      }
    },
    {
      "type": "Feature",
      "geometry": {
        "type": "Point",
        "coordinates": [
          -85.680831,
          42.970727
        ]
      },
      "properties": {
        "SSID": "Anchor Wifi",
        "Password": "anchorbar"
      }
    },
    {
      "type": "Feature",
      "geometry": {
        "type": "Point",
        "coordinates": [
          -85.666744,
          42.944796
        ]
      },
      "properties": {
        "SSID": "Arvon",
        "Password": "Arvon555"
      }
    },
    {
      "type": "Feature",
      "geometry": {
        "type": "Point",
        "coordinates": [
          -85.666744,
          42.944796
        ]
      },
      "properties": {
        "SSID": "Arvon",
        "Password": "Arvon555"
      }
    },
    {
      "type": "Feature",
      "geometry": {
        "type": "Point",
        "coordinates": [
          -85.666744,
          42.944796
        ]
      },
      "properties": {
        "SSID": "Arvon",
        "Password": "Arvon555"
      }
    },
    {
      "type": "Feature",
      "geometry": {
        "type": "Point",
        "coordinates": [
          -85.666744,
          42.944796
        ]
      },
      "properties": {
        "SSID": "Arvon",
        "Password": "Arvon555"
      }
    },
    {
      "type": "Feature",
      "geometry": {
        "type": "Point",
        "coordinates": [
          -85.682901,
          42.970538
        ]
      },
      "properties": {
        "SSID": "BSB Guest",
        "Password": "detroit313"
      }
    },
    {
      "type": "Feature",
      "geometry": {
        "type": "Point",
        "coordinates": [
          -85.651013,
          42.970226
        ]
      },
      "properties": {
        "SSID": "Bob's Bar",
        "Password": "freebeer"
      }
    },
    {
      "type": "Feature",
      "geometry": {
        "type": "Point",
        "coordinates": [
          -85.651013,
          42.970226
        ]
      },
      "properties": {
        "SSID": "Bob's Bar",
        "Password": "freebeer"
      }
    },
    {
      "type": "Feature",
      "geometry": {
        "type": "Point",
        "coordinates": [
          -85.651013,
          42.970226
        ]
      },
      "properties": {
        "SSID": "Bobs Bar",
        "Password": "freebeer"
      }
    },
    {
      "type": "Feature",
      "geometry": {
        "type": "Point",
        "coordinates": [
          -85.651013,
          42.970226
        ]
      },
      "properties": {
        "SSID": "Bobs Bar",
        "Password": "freebeer"
      }
    },
    {
      "type": "Feature",
      "geometry": {
        "type": "Point",
        "coordinates": [
          -85.669941,
          42.955785
        ]
      },
      "properties": {
        "SSID": "CBC Free WiFi",
        "Password": "nocrapbeer"
      }
    },
    {
      "type": "Feature",
      "geometry": {
        "type": "Point",
        "coordinates": [
          -85.669941,
          42.955785
        ]
      },
      "properties": {
        "SSID": "CBC Free WiFi",
        "Password": "nocrapbeer"
      }
    },
    {
      "type": "Feature",
      "geometry": {
        "type": "Point",
        "coordinates": [
          -85.669941,
          42.955785
        ]
      },
      "properties": {
        "SSID": "CBC Free WiFi",
        "Password": "nocrapbeer"
      }
    },
    {
      "type": "Feature",
      "geometry": {
        "type": "Point",
        "coordinates": [
          -85.669941,
          42.955785
        ]
      },
      "properties": {
        "SSID": "CBC Free WiFi",
        "Password": "nocrapbeer"
      }
    },
    {
      "type": "Feature",
      "geometry": {
        "type": "Point",
        "coordinates": [
          -85.672313,
          42.978072
        ]
      },
      "properties": {
        "SSID": "CITYBUILT-GUEST",
        "Password": "grbeercity"
      }
    },
    {
      "type": "Feature",
      "geometry": {
        "type": "Point",
        "coordinates": [
          -85.672313,
          42.978072
        ]
      },
      "properties": {
        "SSID": "CITYBUILT-GUEST",
        "Password": "grbeercity"
      }
    },
    {
      "type": "Feature",
      "geometry": {
        "type": "Point",
        "coordinates": [
          -85.672313,
          42.978072
        ]
      },
      "properties": {
        "SSID": "CITYBUILT-GUEST",
        "Password": "grbeercity"
      }
    },
    {
      "type": "Feature",
      "geometry": {
        "type": "Point",
        "coordinates": [
          -85.672313,
          42.978072
        ]
      },
      "properties": {
        "SSID": "CITYBUILT-GUEST",
        "Password": "grbeercity"
      }
    },
    {
      "type": "Feature",
      "geometry": {
        "type": "Point",
        "coordinates": [
          -85.681702,
          42.985131
        ]
      },
      "properties": {
        "SSID": "Chicago gyro",
        "Password": "616.451.0021"
      }
    },
    {
      "type": "Feature",
      "geometry": {
        "type": "Point",
        "coordinates": [
          -85.669912,
          42.964661
        ]
      },
      "properties": {
        "SSID": "CityFlats",
        "Password": "cityflats",
        "Notes": "Access code is 'cityflats#' where # is the number of the month."
      }
    },
    {
      "type": "Feature",
      "geometry": {
        "type": "Point",
        "coordinates": [
          -85.669912,
          42.964661
        ]
      },
      "properties": {
        "SSID": "CityFlats",
        "Password": "cityflats",
        "Notes": "Access code is 'cityflats#' where # is the number of the month."
      }
    },
    {
      "type": "Feature",
      "geometry": {
        "type": "Point",
        "coordinates": [
          -85.669912,
          42.964661
        ]
      },
      "properties": {
        "SSID": "CityFlats",
        "Password": "cityflats",
        "Notes": "Access code is 'cityflats#' where # is the number of the month."
      }
    },
    {
      "type": "Feature",
      "geometry": {
        "type": "Point",
        "coordinates": [
          -85.669912,
          42.964661
        ]
      },
      "properties": {
        "SSID": "CityFlats",
        "Password": "cityflats",
        "Notes": "Access code is 'cityflats#' where # is the number of the month."
      }
    },
    {
      "type": "Feature",
      "geometry": {
        "type": "Point",
        "coordinates": [
          -85.681013,
          42.970723
        ]
      },
      "properties": {
        "SSID": "Condado Tacos Guest",
        "Password": "eatmoretacos"
      }
    },
    {
      "type": "Feature",
      "geometry": {
        "type": "Point",
        "coordinates": [
          -85.681013,
          42.970723
        ]
      },
      "properties": {
        "SSID": "Condado Tacos Guest",
        "Password": "eatmoretacos"
      }
    },
    {
      "type": "Feature",
      "geometry": {
        "type": "Point",
        "coordinates": [
          -85.681013,
          42.970723
        ]
      },
      "properties": {
        "SSID": "Condado Tacos Guest",
        "Password": "eatmoretacos"
      }
    },
    {
      "type": "Feature",
      "geometry": {
        "type": "Point",
        "coordinates": [
          -85.681013,
          42.970723
        ]
      },
      "properties": {
        "SSID": "Condado Tacos Guest",
        "Password": "eatmoretacos"
      }
    },
    {
      "type": "Feature",
      "geometry": {
        "type": "Point",
        "coordinates": [
          -85.634649,
          42.957508
        ]
      },
      "properties": {
        "SSID": "EarlyBird_5G",
        "Password": "Bird2017"
      }
    },
    {
      "type": "Feature",
      "geometry": {
        "type": "Point",
        "coordinates": [
          -85.634649,
          42.957508
        ]
      },
      "properties": {
        "SSID": "EarlyBird_5G",
        "Password": "Bird2017"
      }
    },
    {
      "type": "Feature",
      "geometry": {
        "type": "Point",
        "coordinates": [
          -85.634649,
          42.957508
        ]
      },
      "properties": {
        "SSID": "EarlyBird_5G",
        "Password": "Bird2017"
      }
    },
    {
      "type": "Feature",
      "geometry": {
        "type": "Point",
        "coordinates": [
          -85.634649,
          42.957508
        ]
      },
      "properties": {
        "SSID": "EarlyBird_5G",
        "Password": "Bird2017"
      }
    },
    {
      "type": "Feature",
      "geometry": {
        "type": "Point",
        "coordinates": [
          -85.669501,
          42.962987
        ]
      },
      "properties": {
        "SSID": "Factory Friends",
        "Password": "factoryguest38",
        "Notes": "Available on the 3rd and 4th floors."
      }
    },
    {
      "type": "Feature",
      "geometry": {
        "type": "Point",
        "coordinates": [
          -85.669501,
          42.962987
        ]
      },
      "properties": {
        "SSID": "Factory Friends",
        "Password": "factoryguest38",
        "Notes": "Available on the 3rd and 4th floors."
      }
    },
    {
      "type": "Feature",
      "geometry": {
        "type": "Point",
        "coordinates": [
          -85.669501,
          42.962987
        ]
      },
      "properties": {
        "SSID": "Factory Friends",
        "Password": "factoryguest38",
        "Notes": "Available on the 3rd and 4th floors."
      }
    },
    {
      "type": "Feature",
      "geometry": {
        "type": "Point",
        "coordinates": [
          -85.669501,
          42.962987
        ]
      },
      "properties": {
        "SSID": "Factory Friends",
        "Password": "factoryguest38",
        "Notes": "Available on the 3rd and 4th floors."
      }
    },
    {
      "type": "Feature",
      "geometry": {
        "type": "Point",
        "coordinates": [
          -85.670024,
          42.966274
        ]
      },
      "properties": {
        "SSID": "Ferris_Coffee_5g",
        "Password": "ferris1924"
      }
    },
    {
      "type": "Feature",
      "geometry": {
        "type": "Point",
        "coordinates": [
          -85.670024,
          42.966274
        ]
      },
      "properties": {
        "SSID": "Ferris_Coffee_5g",
        "Password": "ferris1924"
      },
      "id": 25
    },
    {
      "type": "Feature",
      "geometry": {
        "type": "Point",
        "coordinates": [
          -85.670024,
          42.966274
        ]
      },
      "properties": {
        "SSID": "Ferris_Coffee_5g",
        "Password": "ferris1924"
      }
    },
    {
      "type": "Feature",
      "geometry": {
        "type": "Point",
        "coordinates": [
          -85.670024,
          42.966274
        ]
      },
      "properties": {
        "SSID": "Ferris_Coffee_5g",
        "Password": "ferris1924"
      },
      "id": 25
    },
    {
      "type": "Feature",
      "geometry": {
        "type": "Point",
        "coordinates": [
          -85.673817,
          42.958338
        ]
      },
      "properties": {
        "SSID": "FoundersFreeWi-Fi",
        "Password": "imperialstout"
      }
    },
    {
      "type": "Feature",
      "geometry": {
        "type": "Point",
        "coordinates": [
          -85.673817,
          42.958338
        ]
      },
      "properties": {
        "SSID": "FoundersFreeWi-Fi",
        "Password": "imperialstout"
      }
    },
    {
      "type": "Feature",
      "geometry": {
        "type": "Point",
        "coordinates": [
          -85.673817,
          42.958338
        ]
      },
      "properties": {
        "SSID": "FoundersFreeWi-Fi",
        "Password": "imperialstout"
      }
    },
    {
      "type": "Feature",
      "geometry": {
        "type": "Point",
        "coordinates": [
          -85.673817,
          42.958338
        ]
      },
      "properties": {
        "SSID": "FoundersFreeWi-Fi",
        "Password": "imperialstout"
      }
    },
    {
      "type": "Feature",
      "geometry": {
        "type": "Point",
        "coordinates": [
          -85.670459,
          42.97731
        ]
      },
      "properties": {
        "SSID": "GarageBarGuest",
        "Password": "garagebarguest"
      }
    },
    {
      "type": "Feature",
      "geometry": {
        "type": "Point",
        "coordinates": [
          -85.670459,
          42.97731
        ]
      },
      "properties": {
        "SSID": "GarageBarGuest",
        "Password": "garagebarguest"
      }
    },
    {
      "type": "Feature",
      "geometry": {
        "type": "Point",
        "coordinates": [
          -85.670459,
          42.97731
        ]
      },
      "properties": {
        "SSID": "GarageBarGuest",
        "Password": "garagebarguest"
      }
    },
    {
      "type": "Feature",
      "geometry": {
        "type": "Point",
        "coordinates": [
          -85.670459,
          42.97731
        ]
      },
      "properties": {
        "SSID": "GarageBarGuest",
        "Password": "garagebarguest"
      }
    },
    {
      "type": "Feature",
      "geometry": {
        "type": "Point",
        "coordinates": [
          -85.66717,
          42.985412
        ]
      },
      "properties": {
        "SSID": "Graydons Crossing-guest",
        "Notes": "Access code is 'graydons'"
      }
    },
    {
      "type": "Feature",
      "geometry": {
        "type": "Point",
        "coordinates": [
          -85.66717,
          42.985412
        ]
      },
      "properties": {
        "SSID": "Graydons Crossing-guest",
        "Notes": "Access code is 'graydons'"
      }
    },
    {
      "type": "Feature",
      "geometry": {
        "type": "Point",
        "coordinates": [
          -85.66717,
          42.985412
        ]
      },
      "properties": {
        "SSID": "Graydons Crossing-guest",
        "Notes": "Access code is 'graydons'"
      }
    },
    {
      "type": "Feature",
      "geometry": {
        "type": "Point",
        "coordinates": [
          -85.66717,
          42.985412
        ]
      },
      "properties": {
        "SSID": "Graydons Crossing-guest",
        "Notes": "Access code is 'graydons'"
      }
    },
    {
      "type": "Feature",
      "geometry": {
        "type": "Point",
        "coordinates": [
          -85.688671,
          42.995275
        ]
      },
      "properties": {
        "SSID": "Greyline Guest Network",
        "Password": "beerisgood"
      }
    },
    {
      "type": "Feature",
      "geometry": {
        "type": "Point",
        "coordinates": [
          -85.688671,
          42.995275
        ]
      },
      "properties": {
        "SSID": "Greyline Guest Network",
        "Password": "beerisgood"
      }
    },
    {
      "type": "Feature",
      "geometry": {
        "type": "Point",
        "coordinates": [
          -85.688671,
          42.995275
        ]
      },
      "properties": {
        "SSID": "Greyline Guest Network",
        "Password": "beerisgood"
      }
    },
    {
      "type": "Feature",
      "geometry": {
        "type": "Point",
        "coordinates": [
          -85.688671,
          42.995275
        ]
      },
      "properties": {
        "SSID": "Greyline Guest Network",
        "Password": "beerisgood"
      }
    },
    {
      "type": "Feature",
      "geometry": {
        "type": "Point",
        "coordinates": [
          -85.630671,
          42.955148
        ]
      },
      "properties": {
        "SSID": "HarmonyMgmt",
        "Password": "1551lake"
      }
    },
    {
      "type": "Feature",
      "geometry": {
        "type": "Point",
        "coordinates": [
          -85.630671,
          42.955148
        ]
      },
      "properties": {
        "SSID": "HarmonyMgmt",
        "Password": "1551lake"
      }
    },
    {
      "type": "Feature",
      "geometry": {
        "type": "Point",
        "coordinates": [
          -85.630671,
          42.955148
        ]
      },
      "properties": {
        "SSID": "HarmonyMgmt",
        "Password": "1551lake"
      }
    },
    {
      "type": "Feature",
      "geometry": {
        "type": "Point",
        "coordinates": [
          -85.630671,
          42.955148
        ]
      },
      "properties": {
        "SSID": "HarmonyMgmt",
        "Password": "1551lake"
      }
    },
    {
      "type": "Feature",
      "geometry": {
        "type": "Point",
        "coordinates": [
          -85.67206,
          42.975643
        ]
      },
      "properties": {
        "SSID": "Hilton Honors",
        "Password": "GRRMA"
      }
    },
    {
      "type": "Feature",
      "geometry": {
        "type": "Point",
        "coordinates": [
          -85.67206,
          42.975643
        ]
      },
      "properties": {
        "SSID": "Hilton Honors",
        "Password": "GRRMA"
      }
    },
    {
      "type": "Feature",
      "geometry": {
        "type": "Point",
        "coordinates": [
          -85.688021,
          42.976316
        ]
      },
      "properties": {
        "SSID": "Holidaybar-5g",
        "Password": "Spring2021"
      }
    },
    {
      "type": "Feature",
      "geometry": {
        "type": "Point",
        "coordinates": [
          -85.688021,
          42.976316
        ]
      },
      "properties": {
        "SSID": "Holidaybar-5g",
        "Password": "Spring2021"
      }
    },
    {
      "type": "Feature",
      "geometry": {
        "type": "Point",
        "coordinates": [
          -85.684594,
          42.97059
        ]
      },
      "properties": {
        "SSID": "KBCO Guest",
        "Password": "Welcome!"
      }
    },
    {
      "type": "Feature",
      "geometry": {
        "type": "Point",
        "coordinates": [
          -85.684594,
          42.97059
        ]
      },
      "properties": {
        "SSID": "KBCO Guest",
        "Password": "Welcome!"
      }
    },
    {
      "type": "Feature",
      "geometry": {
        "type": "Point",
        "coordinates": [
          -85.684594,
          42.97059
        ]
      },
      "properties": {
        "SSID": "KBCO Guest",
        "Password": "Welcome!"
      }
    },
    {
      "type": "Feature",
      "geometry": {
        "type": "Point",
        "coordinates": [
          -85.684594,
          42.97059
        ]
      },
      "properties": {
        "SSID": "KBCO Guest",
        "Password": "Welcome!"
      }
    },
    {
      "type": "Feature",
      "geometry": {
        "type": "Point",
        "coordinates": [
          -85.669914,
          42.965095
        ]
      },
      "properties": {
        "SSID": "LOCAL MOCHA",
        "Password": "LOCAL106"
      }
    },
    {
      "type": "Feature",
      "geometry": {
        "type": "Point",
        "coordinates": [
          -85.669914,
          42.965095
        ]
      },
      "properties": {
        "SSID": "LOCAL MOCHA",
        "Password": "LOCAL106"
      }
    },
    {
      "type": "Feature",
      "geometry": {
        "type": "Point",
        "coordinates": [
          -85.669914,
          42.965095
        ]
      },
      "properties": {
        "SSID": "LOCAL MOCHA",
        "Password": "LOCAL106"
      }
    },
    {
      "type": "Feature",
      "geometry": {
        "type": "Point",
        "coordinates": [
          -85.669914,
          42.965095
        ]
      },
      "properties": {
        "SSID": "LOCAL MOCHA",
        "Password": "LOCAL106"
      }
    },
    {
      "type": "Feature",
      "geometry": {
        "type": "Point",
        "coordinates": [
          -85.668946,
          42.960863
        ]
      },
      "properties": {
        "SSID": "Lantern Fiber",
        "Password": "iboughtadrink"
      }
    },
    {
      "type": "Feature",
      "geometry": {
        "type": "Point",
        "coordinates": [
          -85.668946,
          42.960863
        ]
      },
      "properties": {
        "SSID": "Lantern Fiber",
        "Password": "iboughtadrink"
      }
    },
    {
      "type": "Feature",
      "geometry": {
        "type": "Point",
        "coordinates": [
          -85.668946,
          42.960863
        ]
      },
      "properties": {
        "SSID": "Lantern Fiber",
        "Password": "iboughtadrink"
      }
    },
    {
      "type": "Feature",
      "geometry": {
        "type": "Point",
        "coordinates": [
          -85.668946,
          42.960863
        ]
      },
      "properties": {
        "SSID": "Lantern Fiber",
        "Password": "iboughtadrink"
      }
    },
    {
      "type": "Feature",
      "geometry": {
        "type": "Point",
        "coordinates": [
          -85.645576,
          42.96268
        ]
      },
      "properties": {
        "SSID": "Lightfast_Public",
        "Password": "Lightfast"
      }
    },
    {
      "type": "Feature",
      "geometry": {
        "type": "Point",
        "coordinates": [
          -85.645576,
          42.96268
        ]
      },
      "properties": {
        "SSID": "Lightfast_Public",
        "Password": "Lightfast"
      }
    },
    {
      "type": "Feature",
      "geometry": {
        "type": "Point",
        "coordinates": [
          -85.645576,
          42.96268
        ]
      },
      "properties": {
        "SSID": "Lightfast_Public",
        "Password": "Lightfast"
      }
    },
    {
      "type": "Feature",
      "geometry": {
        "type": "Point",
        "coordinates": [
          -85.645576,
          42.96268
        ]
      },
      "properties": {
        "SSID": "Lightfast_Public",
        "Password": "Lightfast"
      }
    },
    {
      "type": "Feature",
      "geometry": {
        "type": "Point",
        "coordinates": [
          -85.670043,
          42.964804
        ]
      },
      "properties": {
        "SSID": "Littlebird-5",
        "Password": "superharry8"
      }
    },
    {
      "type": "Feature",
      "geometry": {
        "type": "Point",
        "coordinates": [
          -85.670043,
          42.964804
        ]
      },
      "properties": {
        "SSID": "Littlebird-5",
        "Password": "superharry8"
      }
    },
    {
      "type": "Feature",
      "geometry": {
        "type": "Point",
        "coordinates": [
          -85.670043,
          42.964804
        ]
      },
      "properties": {
        "SSID": "Littlebird-5",
        "Password": "superharry8"
      }
    },
    {
      "type": "Feature",
      "geometry": {
        "type": "Point",
        "coordinates": [
          -85.670043,
          42.964804
        ]
      },
      "properties": {
        "SSID": "Littlebird-5",
        "Password": "superharry8"
      }
    },
    {
      "type": "Feature",
      "geometry": {
        "type": "Point",
        "coordinates": [
          -85.670052,
          42.961368
        ]
      },
      "properties": {
        "SSID": "LunaGuest",
        "Password": "eatmoretacos"
      }
    },
    {
      "type": "Feature",
      "geometry": {
        "type": "Point",
        "coordinates": [
          -85.670052,
          42.961368
        ]
      },
      "properties": {
        "SSID": "LunaGuest",
        "Password": "eatmoretacos"
      }
    },
    {
      "type": "Feature",
      "geometry": {
        "type": "Point",
        "coordinates": [
          -85.670052,
          42.961368
        ]
      },
      "properties": {
        "SSID": "LunaGuest",
        "Password": "eatmoretacos"
      }
    },
    {
      "type": "Feature",
      "geometry": {
        "type": "Point",
        "coordinates": [
          -85.670052,
          42.961368
        ]
      },
      "properties": {
        "SSID": "LunaGuest",
        "Password": "eatmoretacos"
      }
    },
    {
      "type": "Feature",
      "geometry": {
        "type": "Point",
        "coordinates": [
          -85.651148,
          42.955467
        ]
      },
      "properties": {
        "SSID": "Mammoth Distilling Guest",
        "Password": "drinkmammoth"
      },
      "id": 160
    },
    {
      "type": "Feature",
      "geometry": {
        "type": "Point",
        "coordinates": [
          -85.644162,
          42.955712
        ]
      },
      "properties": {
        "SSID": "Meanwhile2",
        "Password": "highspeed"
      }
    },
    {
      "type": "Feature",
      "geometry": {
        "type": "Point",
        "coordinates": [
          -85.644162,
          42.955712
        ]
      },
      "properties": {
        "SSID": "Meanwhile2",
        "Password": "highspeed"
      }
    },
    {
      "type": "Feature",
      "geometry": {
        "type": "Point",
        "coordinates": [
          -85.644162,
          42.955712
        ]
      },
      "properties": {
        "SSID": "Meanwhile2",
        "Password": "highspeed"
      }
    },
    {
      "type": "Feature",
      "geometry": {
        "type": "Point",
        "coordinates": [
          -85.644162,
          42.955712
        ]
      },
      "properties": {
        "SSID": "Meanwhile2",
        "Password": "highspeed"
      }
    },
    {
      "type": "Feature",
      "geometry": {
        "type": "Point",
        "coordinates": [
          -85.683543,
          42.963313
        ]
      },
      "properties": {
        "SSID": "Midnight Express Cafe",
        "Password": "Miro2008"
      }
    },
    {
      "type": "Feature",
      "geometry": {
        "type": "Point",
        "coordinates": [
          -85.67983,
          42.970794
        ]
      },
      "properties": {
        "SSID": "NHBC_Guest",
        "Password": "newholland"
      }
    },
    {
      "type": "Feature",
      "geometry": {
        "type": "Point",
        "coordinates": [
          -85.67983,
          42.970794
        ]
      },
      "properties": {
        "SSID": "NHBC_Guest",
        "Password": "newholland"
      }
    },
    {
      "type": "Feature",
      "geometry": {
        "type": "Point",
        "coordinates": [
          -85.67983,
          42.970794
        ]
      },
      "properties": {
        "SSID": "NHBC_Guest",
        "Password": "newholland"
      }
    },
    {
      "type": "Feature",
      "geometry": {
        "type": "Point",
        "coordinates": [
          -85.67983,
          42.970794
        ]
      },
      "properties": {
        "SSID": "NHBC_Guest",
        "Password": "newholland"
      }
    },
    {
      "type": "Feature",
      "geometry": {
        "type": "Point",
        "coordinates": [
          -85.66481,
          42.963016
        ]
      },
      "properties": {
        "SSID": "PaLatte Coffee & Art",
        "Password": "muffintop"
      }
    },
    {
      "type": "Feature",
      "geometry": {
        "type": "Point",
        "coordinates": [
          -85.66481,
          42.963016
        ]
      },
      "properties": {
        "SSID": "PaLatte Coffee & Art",
        "Password": "muffintop"
      }
    },
    {
      "type": "Feature",
      "geometry": {
        "type": "Point",
        "coordinates": [
          -85.66481,
          42.963016
        ]
      },
      "properties": {
        "SSID": "PaLatte Coffee & Art",
        "Password": "muffintop"
      }
    },
    {
      "type": "Feature",
      "geometry": {
        "type": "Point",
        "coordinates": [
          -85.66481,
          42.963016
        ]
      },
      "properties": {
        "SSID": "PaLatte Coffee & Art",
        "Password": "muffintop"
      }
    },
    {
      "type": "Feature",
      "geometry": {
        "type": "Point",
        "coordinates": [
          -85.64567,
          42.955091
        ]
      },
      "properties": {
        "SSID": "Speciation Guest",
        "Password": "beercity"
      }
    },
    {
      "type": "Feature",
      "geometry": {
        "type": "Point",
        "coordinates": [
          -85.64567,
          42.955091
        ]
      },
      "properties": {
        "SSID": "Speciation Guest",
        "Password": "beercity"
      }
    },
    {
      "type": "Feature",
      "geometry": {
        "type": "Point",
        "coordinates": [
          -85.64567,
          42.955091
        ]
      },
      "properties": {
        "SSID": "Speciation Guest",
        "Password": "beercity"
      }
    },
    {
      "type": "Feature",
      "geometry": {
        "type": "Point",
        "coordinates": [
          -85.64567,
          42.955091
        ]
      },
      "properties": {
        "SSID": "Speciation Guest",
        "Password": "beercity"
      }
    },
    {
      "type": "Feature",
      "geometry": {
        "type": "Point",
        "coordinates": [
          -85.684291,
          42.970612
        ]
      },
      "properties": {
        "SSID": "SteelCatBar Public",
        "Password": "steelcatpassword"
      }
    },
    {
      "type": "Feature",
      "geometry": {
        "type": "Point",
        "coordinates": [
          -85.684291,
          42.970612
        ]
      },
      "properties": {
        "SSID": "SteelCatBar Public",
        "Password": "steelcatpassword"
      }
    },
    {
      "type": "Feature",
      "geometry": {
        "type": "Point",
        "coordinates": [
          -85.684291,
          42.970612
        ]
      },
      "properties": {
        "SSID": "SteelCatBar Public",
        "Password": "steelcatpassword"
      }
    },
    {
      "type": "Feature",
      "geometry": {
        "type": "Point",
        "coordinates": [
          -85.684291,
          42.970612
        ]
      },
      "properties": {
        "SSID": "SteelCatBar Public",
        "Password": "steelcatpassword"
      }
    },
    {
      "type": "Feature",
      "properties": {
        "SSID": "The Cabin Guest",
        "Password": "readabookinstead"
      },
      "geometry": {
        "type": "Point",
        "coordinates": [
          -85.650154,
          42.955417
        ]
      }
    },
    {
      "type": "Feature",
      "geometry": {
        "type": "Point",
        "coordinates": [
          -85.670832,
          42.965669
        ]
      },
      "properties": {
        "SSID": "Uccellos-Public",
        "Password": "welcome!"
      }
    },
    {
      "type": "Feature",
      "geometry": {
        "type": "Point",
        "coordinates": [
          -85.670832,
          42.965669
        ]
      },
      "properties": {
        "SSID": "Uccellos-Public",
        "Password": "welcome!"
      }
    },
    {
      "type": "Feature",
      "geometry": {
        "type": "Point",
        "coordinates": [
          -85.670832,
          42.965669
        ]
      },
      "properties": {
        "SSID": "Uccellos-Public",
        "Password": "welcome!"
      }
    },
    {
      "type": "Feature",
      "geometry": {
        "type": "Point",
        "coordinates": [
          -85.670832,
          42.965669
        ]
      },
      "properties": {
        "SSID": "Uccellos-Public",
        "Password": "welcome!"
      }
    },
    {
      "type": "Feature",
      "geometry": {
        "type": "Point",
        "coordinates": [
          -85.646115,
          42.959832
        ]
      },
      "properties": {
        "SSID": "VIVANT-GUEST",
        "Password": "walloonroom"
      }
    },
    {
      "type": "Feature",
      "geometry": {
        "type": "Point",
        "coordinates": [
          -85.646115,
          42.959832
        ]
      },
      "properties": {
        "SSID": "VIVANT-GUEST",
        "Password": "walloonroom"
      }
    },
    {
      "type": "Feature",
      "geometry": {
        "type": "Point",
        "coordinates": [
          -85.646115,
          42.959832
        ]
      },
      "properties": {
        "SSID": "VIVANT-GUEST",
        "Password": "walloonroom"
      }
    },
    {
      "type": "Feature",
      "geometry": {
        "type": "Point",
        "coordinates": [
          -85.646115,
          42.959832
        ]
      },
      "properties": {
        "SSID": "VIVANT-GUEST",
        "Password": "walloonroom"
      }
    },
    {
      "type": "Feature",
      "geometry": {
        "type": "Point",
        "coordinates": [
          -85.64899,
          42.984213
        ]
      },
      "properties": {
        "SSID": "Vitale Guest",
        "Password": "Vitale2090"
      }
    },
    {
      "type": "Feature",
      "geometry": {
        "type": "Point",
        "coordinates": [
          -85.64899,
          42.984213
        ]
      },
      "properties": {
        "SSID": "Vitale Guest",
        "Password": "Vitale2090"
      }
    },
    {
      "type": "Feature",
      "geometry": {
        "type": "Point",
        "coordinates": [
          -85.64899,
          42.984213
        ]
      },
      "properties": {
        "SSID": "Vitale Guest",
        "Password": "Vitale2090"
      }
    },
    {
      "type": "Feature",
      "geometry": {
        "type": "Point",
        "coordinates": [
          -85.64899,
          42.984213
        ]
      },
      "properties": {
        "SSID": "Vitale Guest",
        "Password": "Vitale2090"
      }
    },
    {
      "type": "Feature",
      "geometry": {
        "type": "Point",
        "coordinates": [
          -85.680809,
          42.970471
        ]
      },
      "properties": {
        "Password": "arktosmeadery",
        "SSID": "arktosmeadery Guest"
      }
    },
    {
      "type": "Feature",
      "geometry": {
        "type": "Point",
        "coordinates": [
          -85.680809,
          42.970471
        ]
      },
      "properties": {
        "Password": "arktosmeadery",
        "SSID": "arktosmeadery Guest"
      }
    },
    {
      "type": "Feature",
      "geometry": {
        "type": "Point",
        "coordinates": [
          -85.680809,
          42.970471
        ]
      },
      "properties": {
        "Password": "arktosmeadery",
        "SSID": "arktosmeadery Guest"
      }
    },
    {
      "type": "Feature",
      "geometry": {
        "type": "Point",
        "coordinates": [
          -85.680809,
          42.970471
        ]
      },
      "properties": {
        "Password": "arktosmeadery",
        "SSID": "arktosmeadery Guest"
      }
    },
    {
      "type": "Feature",
      "geometry": {
        "type": "Point",
        "coordinates": [
          -85.680712,
          42.970793
        ]
      },
      "properties": {
        "SSID": "broadleaf-guest",
        "Password": "leafpile"
      }
    },
    {
      "type": "Feature",
      "geometry": {
        "type": "Point",
        "coordinates": [
          -85.680712,
          42.970793
        ]
      },
      "properties": {
        "SSID": "broadleaf-guest",
        "Password": "leafpile"
      }
    },
    {
      "type": "Feature",
      "geometry": {
        "type": "Point",
        "coordinates": [
          -85.680712,
          42.970793
        ]
      },
      "properties": {
        "SSID": "broadleaf-guest",
        "Password": "leafpile"
      }
    },
    {
      "type": "Feature",
      "geometry": {
        "type": "Point",
        "coordinates": [
          -85.680712,
          42.970793
        ]
      },
      "properties": {
        "SSID": "broadleaf-guest",
        "Password": "leafpile"
      }
    },
    {
      "type": "Feature",
      "geometry": {
        "type": "Point",
        "coordinates": [
          -85.687587,
          42.974802
        ]
      },
      "properties": {
        "SSID": "corridor-guests",
        "Password": "freewififorme"
      }
    },
    {
      "type": "Feature",
      "geometry": {
        "type": "Point",
        "coordinates": [
          -85.687587,
          42.974802
        ]
      },
      "properties": {
        "SSID": "corridor-guests",
        "Password": "freewififorme"
      }
    },
    {
      "type": "Feature",
      "geometry": {
        "type": "Point",
        "coordinates": [
          -85.687587,
          42.974802
        ]
      },
      "properties": {
        "SSID": "corridor-guests",
        "Password": "freewififorme"
      }
    },
    {
      "type": "Feature",
      "geometry": {
        "type": "Point",
        "coordinates": [
          -85.687587,
          42.974802
        ]
      },
      "properties": {
        "SSID": "corridor-guests",
        "Password": "freewififorme"
      }
    },
    {
      "type": "Feature",
      "geometry": {
        "type": "Point",
        "coordinates": [
          -85.674412,
          42.956778
        ]
      },
      "properties": {
        "SSID": "horseshoe",
        "Password": "horseshoe"
      }
    },
    {
      "type": "Feature",
      "geometry": {
        "type": "Point",
        "coordinates": [
          -85.674412,
          42.956778
        ]
      },
      "properties": {
        "SSID": "horseshoe",
        "Password": "horseshoe"
      }
    },
    {
      "type": "Feature",
      "geometry": {
        "type": "Point",
        "coordinates": [
          -85.674412,
          42.956778
        ]
      },
      "properties": {
        "SSID": "horseshoe",
        "Password": "horseshoe"
      }
    },
    {
      "type": "Feature",
      "geometry": {
        "type": "Point",
        "coordinates": [
          -85.674412,
          42.956778
        ]
      },
      "properties": {
        "SSID": "horseshoe",
        "Password": "horseshoe"
      }
    },
    {
      "type": "Feature",
      "geometry": {
        "type": "Point",
        "coordinates": [
          -85.673176,
          42.959287
        ]
      },
      "properties": {
        "SSID": "mayanbuzzguest",
        "Password": "",
        "Notes": "Access code is 'chocolate'"
      }
    },
    {
      "type": "Feature",
      "geometry": {
        "type": "Point",
        "coordinates": [
          -85.673176,
          42.959287
        ]
      },
      "properties": {
        "SSID": "mayanbuzzguest",
        "Password": "",
        "Notes": "Access code is 'chocolate'"
      }
    },
    {
      "type": "Feature",
      "geometry": {
        "type": "Point",
        "coordinates": [
          -85.673176,
          42.959287
        ]
      },
      "properties": {
        "SSID": "mayanbuzzguest",
        "Password": "",
        "Notes": "Access code is 'chocolate'"
      }
    },
    {
      "type": "Feature",
      "geometry": {
        "type": "Point",
        "coordinates": [
          -85.673176,
          42.959287
        ]
      },
      "properties": {
        "SSID": "mayanbuzzguest",
        "Password": "",
        "Notes": "Access code is 'chocolate'"
      }
    },
    {
      "type": "Feature",
      "geometry": {
        "type": "Point",
        "coordinates": [
          -85.669997,
          42.95996
        ]
      },
      "properties": {
        "SSID": "peppinos",
        "Password": "peppinos"
      }
    },
    {
      "type": "Feature",
      "geometry": {
        "type": "Point",
        "coordinates": [
          -85.669997,
          42.95996
        ]
      },
      "properties": {
        "SSID": "peppinos",
        "Password": "peppinos"
      }
    },
    {
      "type": "Feature",
      "geometry": {
        "type": "Point",
        "coordinates": [
          -85.669997,
          42.95996
        ]
      },
      "properties": {
        "SSID": "peppinos",
        "Password": "peppinos"
      }
    },
    {
      "type": "Feature",
      "geometry": {
        "type": "Point",
        "coordinates": [
          -85.669997,
          42.95996
        ]
      },
      "properties": {
        "SSID": "peppinos",
        "Password": "peppinos"
      }
    },
    {
      "type": "Feature",
      "geometry": {
        "type": "Point",
        "coordinates": [
          -85.643012,
          42.955663
        ]
      },
      "properties": {
        "SSID": "thesparrows-public",
        "Password": "hamburger8"
      }
    },
    {
      "type": "Feature",
      "geometry": {
        "type": "Point",
        "coordinates": [
          -85.643012,
          42.955663
        ]
      },
      "properties": {
        "SSID": "thesparrows-public",
        "Password": "hamburger8"
      }
    },
    {
      "type": "Feature",
      "geometry": {
        "type": "Point",
        "coordinates": [
          -85.643012,
          42.955663
        ]
      },
      "properties": {
        "SSID": "thesparrows-public",
        "Password": "hamburger8"
      }
    },
    {
      "type": "Feature",
      "geometry": {
        "type": "Point",
        "coordinates": [
          -85.643012,
          42.955663
        ]
      },
      "properties": {
        "SSID": "thesparrows-public",
        "Password": "hamburger8"
      }
    }
  ]
}
